[Satellite]
VERSION=1.1
NAME=GLOBALSTAR M041
NICKNAME=GLOBALSTAR M041
TLE1=1 25650U 99012B   17186.14847868 -.00000088  00000-0 -40138-4 0  9996
TLE2=2 25650  52.0035  57.5613 0003612  47.4190 126.1501 11.96590146830862
